[{"OBJECT_NAME":"LIME","OBJECT_ID":"2025-009AR","EPOCH":"2026-03-09T17:44:15.459648","MEAN_MOTION":15.28703313,"ECCENTRICITY":0.00016347,"INCLINATION":97.3985,"RA_OF_ASC_NODE":151.4831,"ARG_OF_PERICENTER":35.9029,"MEAN_ANOMALY":324.232,"EPHEMERIS_TYPE":0,"CLASSIFICATION_TYPE":"U","NORAD_CAT_ID":62648,"ELEMENT_SET_NO":999,"REV_AT_EPOCH":6376,"BSTAR":0.00047722827,"MEAN_MOTION_DOT":0.00013254,"MEAN_MOTION_DDOT":0},{"OBJECT_NAME":"STARLINK-34069","OBJECT_ID":"2025-157S","EPOCH":"2026-03-09T23:18:34.320384","MEAN_MOTION":15.30160782,"ECCENTRICITY":0.00014969,"INCLINATION":53.1603,"RA_OF_ASC_NODE":344.5911,"ARG_OF_PERICENTER":28.1194,"MEAN_ANOMALY":331.9888,"EPHEMERIS_TYPE":0,"CLASSIFICATION_TYPE":"U","NORAD_CAT_ID":64920,"ELEMENT_SET_NO":999,"REV_AT_EPOCH":3616,"BSTAR":-0.0010513455,"MEAN_MOTION_DOT":-0.0003133,"MEAN_MOTION_DDOT":0}]
